[{"OBJECT_NAME":"STARLINK-31327","OBJECT_ID":"2024-044J","EPOCH":"2026-03-09T02:25:59.859264","MEAN_MOTION":15.27571368,"ECCENTRICITY":1.424e-5,"INCLINATION":42.9989,"RA_OF_ASC_NODE":110.5181,"ARG_OF_PERICENTER":312.1995,"MEAN_ANOMALY":47.8844,"EPHEMERIS_TYPE":0,"CLASSIFICATION_TYPE":"U","NORAD_CAT_ID":59160,"ELEMENT_SET_NO":999,"REV_AT_EPOCH":11350,"BSTAR":-4.5536342e-5,"MEAN_MOTION_DOT":-1.514e-5,"MEAN_MOTION_DDOT":0},{"OBJECT_NAME":"JIELONG-3 R\/B","OBJECT_ID":"2023-190C","EPOCH":"2026-03-09T21:26:26.113920","MEAN_MOTION":15.18151254,"ECCENTRICITY":0.02497151,"INCLINATION":86.5597,"RA_OF_ASC_NODE":295.7177,"ARG_OF_PERICENTER":271.8036,"MEAN_ANOMALY":85.4623,"EPHEMERIS_TYPE":0,"CLASSIFICATION_TYPE":"U","NORAD_CAT_ID":58507,"ELEMENT_SET_NO":999,"REV_AT_EPOCH":12333,"BSTAR":0.00045620602,"MEAN_MOTION_DOT":0.00021606,"MEAN_MOTION_DDOT":0}]
